FALCONSAT-10            
1 58291U 23174AM  26068.70247784  .00006748  00000+0  25969-3 0  9991
2 58291  97.3865 145.7938 0008932 169.5942 190.5483 15.26670596129582
STARLINK-32522          
1 61981U 24210Y   26068.31665773  .00036277  00000+0  13212-2 0  9999
2 61981  42.9978 181.8649 0000655 207.0434 153.0384 15.27583829 74824
